SL-16 R/B               
1 25407U 98045B   26092.30583268 -.00000040  00000+0  39593-5 0  9996
2 25407  71.0092 131.9123 0008160 332.9613  27.1084 14.16193239430447
ISS (ZARYA)             
1 25544U 98067A   26092.13346771  .00010892  00000+0  20755-3 0  9992
2 25544  51.6331 316.4579 0006239 262.1298  97.8982 15.48713693559960
CZ-4B R/B               
1 25732U 99025C   26092.15966705  .00000076  00000+0  57732-4 0  9992
2 25732  98.6577 135.8802 0035968 277.5530 151.9391 14.18270029391499
OKEAN-O                 
1 25860U 99039A   26092.17417346  .00001006  00000+0  13865-3 0  9995
2 25860  97.9394 151.8213 0000896 100.4880 259.6433 14.80374527437860
SL-16 R/B               
1 25861U 99039B   26092.13198396  .00000675  00000+0  92283-4 0  9996
2 25861  97.9915 151.1878 0014892 176.1600 183.9730 14.81763770440339
DELTA 2 R/B             
1 25876U 99041E   26092.29822435  .00001064  00000+0  21051-3 0  9997
2 25876  51.7607 206.9697 0502628  58.0496 306.8294 14.11893349366369
HELIOS 1B               
1 25977U 99064A   26092.32098524  .00002476  00000+0  27759-3 0  9991
2 25977  98.1674 355.2566 0001613  45.7938 314.3409 14.87792160688771
TERRA                   
1 25994U 99068A   26092.27506426  .00000657  00000+0  14279-3 0  9995
2 25994  97.9543 144.8030 0003654 102.9377 321.6839 14.61040692398527
SL-16 R/B               
1 26070U 00006B   26092.32741406  .00000202  00000+0  12679-3 0  9998
2 26070  71.0035  48.1313 0015384 152.7892 207.4040 14.15830216351904
TITAN 4B R/B            
1 26474U 00047B   26092.28264097  .00004928  00000+0  30688-3 0  9991
2 26474  67.9907 334.1596 0040117   7.6994 352.4762 15.09782770396476
ENVISAT                 
1 27386U 02009A   26092.33294837  .00000185  00000+0  73743-4 0  9996
2 27386  98.3769  45.3731 0001209  82.3136  35.0734 14.39045512262576
IDEFIX & ARIANE 42P R/B 
1 27422U 02021B   26092.26851593  .00000392  00000+0  16546-3 0  9998
2 27422  98.5898  30.5968 0012810 115.3367 244.9144 14.31042674247390
