CCSDS_OMM_VERS = 2.0
CREATION_DATE  = 
ORIGINATOR     = 

OBJECT_NAME    = SL-16 R/B
OBJECT_ID      = 1998-045B
CENTER_NAME    = EARTH
REF_FRAME      = TEME
TIME_SYSTEM    = UTC
MEAN_ELEMENT_THEORY = SGP/SGP4

EPOCH          = 2026-04-02T07:20:23.943552
MEAN_MOTION    = 14.16193239
ECCENTRICITY   = .00081609
INCLINATION    = 71.0092
RA_OF_ASC_NODE = 131.9123
ARG_OF_PERICENTER = 332.9613
MEAN_ANOMALY   = 27.1084

EPHEMERIS_TYPE = 0
CLASSIFICATION_TYPE = U
NORAD_CAT_ID   = 25407
ELEMENT_SET_NO = 999
REV_AT_EPOCH   = 43044
BSTAR          = .3959307E-5
MEAN_MOTION_DOT = -.4E-6
MEAN_MOTION_DDOT = 0

CCSDS_OMM_VERS = 2.0
CREATION_DATE  = 
ORIGINATOR     = 

OBJECT_NAME    = ISS (ZARYA)
OBJECT_ID      = 1998-067A
CENTER_NAME    = EARTH
REF_FRAME      = TEME
TIME_SYSTEM    = UTC
MEAN_ELEMENT_THEORY = SGP/SGP4

EPOCH          = 2026-04-02T03:12:11.610144
MEAN_MOTION    = 15.48713693
ECCENTRICITY   = .00062399
INCLINATION    = 51.6331
RA_OF_ASC_NODE = 316.4579
ARG_OF_PERICENTER = 262.1298
MEAN_ANOMALY   = 97.8982

EPHEMERIS_TYPE = 0
CLASSIFICATION_TYPE = U
NORAD_CAT_ID   = 25544
ELEMENT_SET_NO = 999
REV_AT_EPOCH   = 55996
BSTAR          = .20754706E-3
MEAN_MOTION_DOT = .10892E-3
MEAN_MOTION_DDOT = 0

CCSDS_OMM_VERS = 2.0
CREATION_DATE  = 
ORIGINATOR     = 

OBJECT_NAME    = CZ-4B R/B
OBJECT_ID      = 1999-025C
CENTER_NAME    = EARTH
REF_FRAME      = TEME
TIME_SYSTEM    = UTC
MEAN_ELEMENT_THEORY = SGP/SGP4

EPOCH          = 2026-04-02T03:49:55.233120
MEAN_MOTION    = 14.18270029
ECCENTRICITY   = .00359684
INCLINATION    = 98.6577
RA_OF_ASC_NODE = 135.8802
ARG_OF_PERICENTER = 277.5530
MEAN_ANOMALY   = 151.9391

EPHEMERIS_TYPE = 0
CLASSIFICATION_TYPE = U
NORAD_CAT_ID   = 25732
ELEMENT_SET_NO = 999
REV_AT_EPOCH   = 39149
BSTAR          = .57732443E-4
MEAN_MOTION_DOT = .76E-6
MEAN_MOTION_DDOT = 0

CCSDS_OMM_VERS = 2.0
CREATION_DATE  = 
ORIGINATOR     = 

OBJECT_NAME    = OKEAN-O
OBJECT_ID      = 1999-039A
CENTER_NAME    = EARTH
REF_FRAME      = TEME
TIME_SYSTEM    = UTC
MEAN_ELEMENT_THEORY = SGP/SGP4

EPOCH          = 2026-04-02T04:10:48.586944
MEAN_MOTION    = 14.80374527
ECCENTRICITY   = .00008967
INCLINATION    = 97.9394
RA_OF_ASC_NODE = 151.8213
ARG_OF_PERICENTER = 100.4880
MEAN_ANOMALY   = 259.6433

EPHEMERIS_TYPE = 0
CLASSIFICATION_TYPE = U
NORAD_CAT_ID   = 25860
ELEMENT_SET_NO = 999
REV_AT_EPOCH   = 43786
BSTAR          = .13864793E-3
MEAN_MOTION_DOT = .1006E-4
MEAN_MOTION_DDOT = 0

CCSDS_OMM_VERS = 2.0
CREATION_DATE  = 
ORIGINATOR     = 

OBJECT_NAME    = SL-16 R/B
OBJECT_ID      = 1999-039B
CENTER_NAME    = EARTH
REF_FRAME      = TEME
TIME_SYSTEM    = UTC
MEAN_ELEMENT_THEORY = SGP/SGP4

EPOCH          = 2026-04-02T03:10:03.414144
MEAN_MOTION    = 14.81763770
ECCENTRICITY   = .00148924
INCLINATION    = 97.9915
RA_OF_ASC_NODE = 151.1878
ARG_OF_PERICENTER = 176.1600
MEAN_ANOMALY   = 183.9730

EPHEMERIS_TYPE = 0
CLASSIFICATION_TYPE = U
NORAD_CAT_ID   = 25861
ELEMENT_SET_NO = 999
REV_AT_EPOCH   = 44033
BSTAR          = .92283216E-4
MEAN_MOTION_DOT = .675E-5
MEAN_MOTION_DDOT = 0

CCSDS_OMM_VERS = 2.0
CREATION_DATE  = 
ORIGINATOR     = 

OBJECT_NAME    = DELTA 2 R/B
OBJECT_ID      = 1999-041E
CENTER_NAME    = EARTH
REF_FRAME      = TEME
TIME_SYSTEM    = UTC
MEAN_ELEMENT_THEORY = SGP/SGP4

EPOCH          = 2026-04-02T07:09:26.583840
MEAN_MOTION    = 14.11893349
ECCENTRICITY   = .05026283
INCLINATION    = 51.7607
RA_OF_ASC_NODE = 206.9697
ARG_OF_PERICENTER = 58.0496
MEAN_ANOMALY   = 306.8294

EPHEMERIS_TYPE = 0
CLASSIFICATION_TYPE = U
NORAD_CAT_ID   = 25876
ELEMENT_SET_NO = 999
REV_AT_EPOCH   = 36636
BSTAR          = .21051038E-3
MEAN_MOTION_DOT = .1064E-4
MEAN_MOTION_DDOT = 0

CCSDS_OMM_VERS = 2.0
CREATION_DATE  = 
ORIGINATOR     = 

OBJECT_NAME    = HELIOS 1B
OBJECT_ID      = 1999-064A
CENTER_NAME    = EARTH
REF_FRAME      = TEME
TIME_SYSTEM    = UTC
MEAN_ELEMENT_THEORY = SGP/SGP4

EPOCH          = 2026-04-02T07:42:13.124736
MEAN_MOTION    = 14.87792160
ECCENTRICITY   = .00016132
INCLINATION    = 98.1674
RA_OF_ASC_NODE = 355.2566
ARG_OF_PERICENTER = 45.7938
MEAN_ANOMALY   = 314.3409

EPHEMERIS_TYPE = 0
CLASSIFICATION_TYPE = U
NORAD_CAT_ID   = 25977
ELEMENT_SET_NO = 999
REV_AT_EPOCH   = 68877
BSTAR          = .27759366E-3
MEAN_MOTION_DOT = .2476E-4
MEAN_MOTION_DDOT = 0

CCSDS_OMM_VERS = 2.0
CREATION_DATE  = 
ORIGINATOR     = 

OBJECT_NAME    = TERRA
OBJECT_ID      = 1999-068A
CENTER_NAME    = EARTH
REF_FRAME      = TEME
TIME_SYSTEM    = UTC
MEAN_ELEMENT_THEORY = SGP/SGP4

EPOCH          = 2026-04-02T06:36:05.552064
MEAN_MOTION    = 14.61040692
ECCENTRICITY   = .00036547
INCLINATION    = 97.9543
RA_OF_ASC_NODE = 144.8030
ARG_OF_PERICENTER = 102.9377
MEAN_ANOMALY   = 321.6839

EPHEMERIS_TYPE = 0
CLASSIFICATION_TYPE = U
NORAD_CAT_ID   = 25994
ELEMENT_SET_NO = 999
REV_AT_EPOCH   = 39852
BSTAR          = .14278606E-3
MEAN_MOTION_DOT = .657E-5
MEAN_MOTION_DDOT = 0

CCSDS_OMM_VERS = 2.0
CREATION_DATE  = 
ORIGINATOR     = 

OBJECT_NAME    = SL-16 R/B
OBJECT_ID      = 2000-006B
CENTER_NAME    = EARTH
REF_FRAME      = TEME
TIME_SYSTEM    = UTC
MEAN_ELEMENT_THEORY = SGP/SGP4

EPOCH          = 2026-04-02T07:51:28.574784
MEAN_MOTION    = 14.15830216
ECCENTRICITY   = .00153843
INCLINATION    = 71.0035
RA_OF_ASC_NODE = 48.1313
ARG_OF_PERICENTER = 152.7892
MEAN_ANOMALY   = 207.4040

EPHEMERIS_TYPE = 0
CLASSIFICATION_TYPE = U
NORAD_CAT_ID   = 26070
ELEMENT_SET_NO = 999
REV_AT_EPOCH   = 35190
BSTAR          = .12678839E-3
MEAN_MOTION_DOT = .202E-5
MEAN_MOTION_DDOT = 0

CCSDS_OMM_VERS = 2.0
CREATION_DATE  = 
ORIGINATOR     = 

OBJECT_NAME    = TITAN 4B R/B
OBJECT_ID      = 2000-047B
CENTER_NAME    = EARTH
REF_FRAME      = TEME
TIME_SYSTEM    = UTC
MEAN_ELEMENT_THEORY = SGP/SGP4

EPOCH          = 2026-04-02T06:47:00.179808
MEAN_MOTION    = 15.09782770
ECCENTRICITY   = .00401171
INCLINATION    = 67.9907
RA_OF_ASC_NODE = 334.1596
ARG_OF_PERICENTER = 7.6994
MEAN_ANOMALY   = 352.4762

EPHEMERIS_TYPE = 0
CLASSIFICATION_TYPE = U
NORAD_CAT_ID   = 26474
ELEMENT_SET_NO = 999
REV_AT_EPOCH   = 39647
BSTAR          = .30688169E-3
MEAN_MOTION_DOT = .4928E-4
MEAN_MOTION_DDOT = 0

CCSDS_OMM_VERS = 2.0
CREATION_DATE  = 
ORIGINATOR     = 

OBJECT_NAME    = ENVISAT
OBJECT_ID      = 2002-009A
CENTER_NAME    = EARTH
REF_FRAME      = TEME
TIME_SYSTEM    = UTC
MEAN_ELEMENT_THEORY = SGP/SGP4

EPOCH          = 2026-04-02T07:59:26.739168
MEAN_MOTION    = 14.39045512
ECCENTRICITY   = .00012096
INCLINATION    = 98.3769
RA_OF_ASC_NODE = 45.3731
ARG_OF_PERICENTER = 82.3136
MEAN_ANOMALY   = 35.0734

EPHEMERIS_TYPE = 0
CLASSIFICATION_TYPE = U
NORAD_CAT_ID   = 27386
ELEMENT_SET_NO = 999
REV_AT_EPOCH   = 26257
BSTAR          = .73743432E-4
MEAN_MOTION_DOT = .185E-5
MEAN_MOTION_DDOT = 0

CCSDS_OMM_VERS = 2.0
CREATION_DATE  = 
ORIGINATOR     = 

OBJECT_NAME    = IDEFIX & ARIANE 42P R/B
OBJECT_ID      = 2002-021B
CENTER_NAME    = EARTH
REF_FRAME      = TEME
TIME_SYSTEM    = UTC
MEAN_ELEMENT_THEORY = SGP/SGP4

EPOCH          = 2026-04-02T06:26:39.776352
MEAN_MOTION    = 14.31042674
ECCENTRICITY   = .00128107
INCLINATION    = 98.5898
RA_OF_ASC_NODE = 30.5968
ARG_OF_PERICENTER = 115.3367
MEAN_ANOMALY   = 244.9144

EPHEMERIS_TYPE = 0
CLASSIFICATION_TYPE = U
NORAD_CAT_ID   = 27422
ELEMENT_SET_NO = 999
REV_AT_EPOCH   = 24739
BSTAR          = .16546306E-3
MEAN_MOTION_DOT = .392E-5
MEAN_MOTION_DDOT = 0

